{"type": "FeatureCollection", "features": [ {"type": "Feature", "properties": {"norad_id": 42969, "name": "SENTINEL-5P", "group": "resource", "lat": 30.76254359310105, "lon": 102.34285057893852, "alt_km": 824.9919766288731, "timestamp": "2025-12-04T09:47:37.180243+00:00", "meta": {"OBJECT_NAME": "SENTINEL-5P", "OBJECT_ID": "2017-064A", "EPOCH": "2025-12-03T19:33:43.278336", "MEAN_MOTION": 14.19513918, "ECCENTRICITY": 9.43e-05, "INCLINATION": 98.777, "RA_OF_ASC_NODE": 276.4789, "ARG_OF_PERICENTER": 85.8301, "MEAN_ANOMALY": 274.2983, "EPHEMERIS_TYPE": 0, "CLASSIFICATION_TYPE": "U", "NORAD_CAT_ID": 42969, "ELEMENT_SET_NO": 999, "REV_AT_EPOCH": 42184, "BSTAR": 9.9162e-05, "MEAN_MOTION_DOT": 1.65e-06, "MEAN_MOTION_DDOT": 0}, "tle": {"line1": "1 42969U 17064A   25337.81508424  .00000165  00000+0  99162-4 0  9992", "line2": "2 42969  98.7770 276.4789 0000943  85.8301 274.2983 14.19513918421840"}}, "geometry": {"type": "Point", "coordinates": [102.34285057893852, 30.76254359310105]}}, {"type": "Feature", "properties": {"norad_id": 42987, "name": "SKYSAT-C11", "group": "resource", "lat": 38.9341100157904, "lon": 109.65870134222348, "alt_km": 422.6823105448966, "timestamp": "2025-12-04T09:47:37.180253+00:00", "meta": {"OBJECT_NAME": "SKYSAT-C11", "OBJECT_ID": "2017-068A", "EPOCH": "2025-12-04T03:24:51.257088", "MEAN_MOTION": 15.46899554, "ECCENTRICITY": 9.49e-05, "INCLINATION": 97.4138, "RA_OF_ASC_NODE": 115.4252, "ARG_OF_PERICENTER": 111.8908, "MEAN_ANOMALY": 248.2442, "EPHEMERIS_TYPE": 0, "CLASSIFICATION_TYPE": "U", "NORAD_CAT_ID": 42987, "ELEMENT_SET_NO": 999, "REV_AT_EPOCH": 45298, "BSTAR": 0.00080686, "MEAN_MOTION_DOT": 0.00040655, "MEAN_MOTION_DDOT": 0}, "tle": {"line1": "1 42987U 17068A   25338.14225992  .00040655  00000+0  80686-3 0  9997", "line2": "2 42987  97.4138 115.4252 0000949 111.8908 248.2442 15.46899554452984"}}, "geometry": {"type": "Point", "coordinates": [109.65870134222348, 38.9341100157904]}}, {"type": "Feature", "properties": {"norad_id": 42988, "name": "SKYSAT-C10", "group": "resource", "lat": -37.07945013522756, "lon": -76.41851138628692, "alt_km": 476.89309771094304, "timestamp": "2025-12-04T09:47:37.180264+00:00", "meta": {"OBJECT_NAME": "SKYSAT-C10", "OBJECT_ID": "2017-068B", "EPOCH": "2025-12-03T21:52:31.155744", "MEAN_MOTION": 15.32008568, "ECCENTRICITY": 0.0005511, "INCLINATION": 97.4257, "RA_OF_ASC_NODE": 108.7403, "ARG_OF_PERICENTER": 118.6562, "MEAN_ANOMALY": 241.5234, "EPHEMERIS_TYPE": 0, "CLASSIFICATION_TYPE": "U", "NORAD_CAT_ID": 42988, "ELEMENT_SET_NO": 999, "REV_AT_EPOCH": 45244, "BSTAR": 0.00065499, "MEAN_MOTION_DOT": 0.00020203, "MEAN_MOTION_DDOT": 0}, "tle": {"line1": "1 42988U 17068B   25337.91147171  .00020203  00000+0  65499-3 0  9996", "line2": "2 42988  97.4257 108.7403 0005511 118.6562 241.5234 15.32008568452449"}}, "geometry": {"type": "Point", "coordinates": [-76.41851138628692, -37.07945013522756]}}, {"type": "Feature", "properties": {"norad_id": 42989, "name": "SKYSAT-C9", "group": "resource", "lat": -53.57625912711826, "lon": 118.76919883659234, "alt_km": 472.99185611031135, "timestamp": "2025-12-04T09:47:37.180274+00:00", "meta": {"OBJECT_NAME": "SKYSAT-C9", "OBJECT_ID": "2017-068C", "EPOCH": "2025-12-04T03:46:28.618752", "MEAN_MOTION": 15.35705598, "ECCENTRICITY": 0.0010657, "INCLINATION": 97.4185, "RA_OF_ASC_NODE": 108.3461, "ARG_OF_PERICENTER": 115.7153, "MEAN_ANOMALY": 244.5192, "EPHEMERIS_TYPE": 0, "CLASSIFICATION_TYPE": "U", "NORAD_CAT_ID": 42989, "ELEMENT_SET_NO": 999, "REV_AT_EPOCH": 45276, "BSTAR": 0.00072904, "MEAN_MOTION_DOT": 0.00025333, "MEAN_MOTION_DDOT": 0}, "tle": {"line1": "1 42989U 17068C   25338.15727568  .00025333  00000+0  72904-3 0  9996", "line2": "2 42989  97.4185 108.3461 0010657 115.7153 244.5192 15.35705598452762"}}, "geometry": {"type": "Point", "coordinates": [118.76919883659234, -53.57625912711826]}}, {"type": "Feature", "properties": {"norad_id": 42990, "name": "SKYSAT-C8", "group": "resource", "lat": 9.54396688252475, "lon": 107.11729986673551, "alt_km": 468.30433897469266, "timestamp": "2025-12-04T09:47:37.180285+00:00", "meta": {"OBJECT_NAME": "SKYSAT-C8", "OBJECT_ID": "2017-068D", "EPOCH": "2025-12-04T03:29:02.433120", "MEAN_MOTION": 15.32624085, "ECCENTRICITY": 0.0002102, "INCLINATION": 97.4277, "RA_OF_ASC_NODE": 108.1103, "ARG_OF_PERICENTER": 18.419, "MEAN_ANOMALY": 341.7127, "EPHEMERIS_TYPE": 0, "CLASSIFICATION_TYPE": "U", "NORAD_CAT_ID": 42990, "ELEMENT_SET_NO": 999, "REV_AT_EPOCH": 45239, "BSTAR": 0.00066927, "MEAN_MOTION_DOT": 0.00021041, "MEAN_MOTION_DDOT": 0}, "tle": {"line1": "1 42990U 17068D   25338.14516705  .00021041  00000+0  66927-3 0  9996", "line2": "2 42990  97.4277 108.1103 0002102  18.4190 341.7127 15.32624085452398"}}, "geometry": {"type": "Point", "coordinates": [107.11729986673551, 9.54396688252475]}}, {"type": "Feature", "properties": {"norad_id": 42991, "name": "SKYSAT-C7", "group": "resource", "lat": -62.0904641026883, "lon": -84.83811059657145, "alt_km": 481.99874943273335, "timestamp": "2025-12-04T09:47:37.180295+00:00", "meta": {"OBJECT_NAME": "SKYSAT-C7", "OBJECT_ID": "2017-068E", "EPOCH": "2025-12-04T04:02:02.942304", "MEAN_MOTION": 15.32033625, "ECCENTRICITY": 0.0007884, "INCLINATION": 97.4285, "RA_OF_ASC_NODE": 109.1814, "ARG_OF_PERICENTER": 83.8997, "MEAN_ANOMALY": 276.3143, "EPHEMERIS_TYPE": 0, "CLASSIFICATION_TYPE": "U", "NORAD_CAT_ID": 42991, "ELEMENT_SET_NO": 999, "REV_AT_EPOCH": 45246, "BSTAR": 0.00069222, "MEAN_MOTION_DOT": 0.00021386, "MEAN_MOTION_DDOT": 0}, "tle": {"line1": "1 42991U 17068E   25338.16808961  .00021386  00000+0  69222-3 0  9990", "line2": "2 42991  97.4285 109.1814 0007884  83.8997 276.3143 15.32033625452464"}}, "geometry": {"type": "Point", "coordinates": [-84.83811059657145, -62.0904641026883]}}, {"type": "Feature", "properties": {"norad_id": 42992, "name": "SKYSAT-C6", "group": "resource", "lat": 24.339051080497455, "lon": 106.48224685264321, "alt_km": 471.1080594629557, "timestamp": "2025-12-04T09:47:37.180306+00:00", "meta": {"OBJECT_NAME": "SKYSAT-C6", "OBJECT_ID": "2017-068F", "EPOCH": "2025-12-03T21:08:22.276032", "MEAN_MOTION": 15.31198589, "ECCENTRICITY": 0.0005146, "INCLINATION": 97.4317, "RA_OF_ASC_NODE": 109.3389, "ARG_OF_PERICENTER": 107.6681, "MEAN_ANOMALY": 252.5122, "EPHEMERIS_TYPE": 0, "CLASSIFICATION_TYPE": "U", "NORAD_CAT_ID": 42992, "ELEMENT_SET_NO": 999, "REV_AT_EPOCH": 45240, "BSTAR": 0.00062176, "MEAN_MOTION_DOT": 0.00018692, "MEAN_MOTION_DDOT": 0}, "tle": {"line1": "1 42992U 17068F   25337.88081338  .00018692  00000+0  62176-3 0  9997", "line2": "2 42992  97.4317 109.3389 0005146 107.6681 252.5122 15.31198589452401"}}, "geometry": {"type": "Point", "coordinates": [106.48224685264321, 24.339051080497455]}}, {"type": "Feature", "properties": {"norad_id": 43111, "name": "CARTOSAT-2F", "group": "resource", "lat": 44.54797278210272, "lon": -136.4358953558385, "alt_km": 503.5423175328915, "timestamp": "2025-12-04T09:47:37.180316+00:00", "meta": {"OBJECT_NAME": "CARTOSAT-2F", "OBJECT_ID": "2018-004A", "EPOCH": "2025-12-03T22:08:15.239904", "MEAN_MOTION": 15.19361073, "ECCENTRICITY": 0.00011245, "INCLINATION": 97.433, "RA_OF_ASC_NODE": 35.7026, "ARG_OF_PERICENTER": 187.1053, "MEAN_ANOMALY": 173.0166, "EPHEMERIS_TYPE": 0, "CLASSIFICATION_TYPE": "U", "NORAD_CAT_ID": 43111, "ELEMENT_SET_NO": 999, "REV_AT_EPOCH": 43768, "BSTAR": 8.4888928e-05, "MEAN_MOTION_DOT": 1.727e-05, "MEAN_MOTION_DDOT": 0}, "tle": {"line1": "1 43111U 18004A   25337.92239861  .00001727  00000+0  84889-4 0  9990", "line2": "2 43111  97.4330  35.7026 0001124 187.1053 173.0166 15.19361073437682"}}, "geometry": {"type": "Point", "coordinates": [-136.4358953558385, 44.54797278210272]}}, {"type": "Feature", "properties": {"norad_id": 43259, "name": "GAOFEN-1 02", "group": "resource", "lat": 76.18364273866989, "lon": -108.51098052253957, "alt_km": 634.1459926411399, "timestamp": "2025-12-04T09:47:37.180326+00:00", "meta": {"OBJECT_NAME": "GAOFEN-1 02", "OBJECT_ID": "2018-031A", "EPOCH": "2025-12-03T23:34:40.065024", "MEAN_MOTION": 14.7645159, "ECCENTRICITY": 0.00013072, "INCLINATION": 98.0819, "RA_OF_ASC_NODE": 35.7678, "ARG_OF_PERICENTER": 254.7553, "MEAN_ANOMALY": 105.3512, "EPHEMERIS_TYPE": 0, "CLASSIFICATION_TYPE": "U", "NORAD_CAT_ID": 43259, "ELEMENT_SET_NO": 999, "REV_AT_EPOCH": 41389, "BSTAR": 0.00026117226, "MEAN_MOTION_DOT": 1.765e-05, "MEAN_MOTION_DDOT": 0}, "tle": {"line1": "1 43259U 18031A   25337.98240816  .00001765  00000+0  26117-3 0  9992", "line2": "2 43259  98.0819  35.7678 0001307 254.7553 105.3512 14.76451590413892"}}, "geometry": {"type": "Point", "coordinates": [-108.51098052253957, 76.18364273866989]}}, {"type": "Feature", "properties": {"norad_id": 43260, "name": "GAOFEN-1 03", "group": "resource", "lat": -37.17463027240995, "lon": -150.11364422112942, "alt_km": 648.421156566128, "timestamp": "2025-12-04T09:47:37.180336+00:00", "meta": {"OBJECT_NAME": "GAOFEN-1 03", "OBJECT_ID": "2018-031B", "EPOCH": "2025-12-03T23:03:07.435008", "MEAN_MOTION": 14.7640804, "ECCENTRICITY": 0.0002594, "INCLINATION": 98.0811, "RA_OF_ASC_NODE": 35.624, "ARG_OF_PERICENTER": 356.8801, "MEAN_ANOMALY": 3.2391, "EPHEMERIS_TYPE": 0, "CLASSIFICATION_TYPE": "U", "NORAD_CAT_ID": 43260, "ELEMENT_SET_NO": 999, "REV_AT_EPOCH": 41388, "BSTAR": 0.00026383809, "MEAN_MOTION_DOT": 1.782e-05, "MEAN_MOTION_DDOT": 0}, "tle": {"line1": "1 43260U 18031B   25337.96050272  .00001782  00000+0  26384-3 0  9992", "line2": "2 43260  98.0811  35.6240 0002594 356.8801   3.2391 14.76408040413881"}}, "geometry": {"type": "Point", "coordinates": [-150.11364422112942, -37.17463027240995]}}]}